STARLINK-35231          
1 65849U 25221AC  26166.83943129  .00017468  00000+0  60055-3 0  9998
2 65849  53.1616 352.9368 0000996  86.3049 273.8065 15.30197803 41100
STARLINK-35252          
1 65850U 25221AD  26166.83309923  .00008310  00000+0  29235-3 0  9999
2 65850  53.1596 352.8978 0001282  89.0517 271.0630 15.30202356 41102
STARLINK-35208          
1 65854U 25223A   26166.81926194  .00031614  00000+0  94243-3 0  9992
2 65854  53.1576 197.3931 0001055  76.9462 283.1659 15.34414643 39242
STARLINK-35200          
1 65855U 25223B   26166.39120121  .00010099  00000+0  35263-3 0  9993
2 65855  53.1555 200.3963 0001161  52.4424 307.6682 15.30201128 39162
STARLINK-35459          
1 65856U 25223C   26166.81507007  .00023384  00000+0  70116-3 0  9990
2 65856  53.1583 197.3669 0001283  84.2832 275.8317 15.34395257 39244
STARLINK-35489          
1 65857U 25223D   26166.31922572  .00020333  00000+0  61133-3 0  9994
2 65857  53.1570 199.9559 0001104  84.5830 275.5299 15.34397893 39165
STARLINK-35199          
1 65858U 25223E   26166.37642776  .00013592  00000+0  47017-3 0  9990
2 65858  53.1574 200.3111 0001210  85.4190 274.6949 15.30201735 39165
STARLINK-35408          
1 65859U 25223F   26166.39067441  .00016676  00000+0  50358-3 0  9991
2 65859  53.1571 199.6922 0001039  74.5243 285.5875 15.34400638 39177
STARLINK-35303          
1 65860U 25223G   26166.38646539  .00010899  00000+0  33320-3 0  9994
2 65860  53.1575 199.6619 0000761  75.0702 285.0385 15.34403497 39170
STARLINK-35258          
1 65861U 25223H   26166.82139733  .00022611  00000+0  67820-3 0  9994
2 65861  53.1581 197.4009 0001253  80.3429 279.7716 15.34404884 39246
STARLINK-35386          
1 65862U 25223J   26166.80674120  .00009497  00000+0  29188-3 0  9999
2 65862  53.1577 198.0223 0001468  77.4125 282.7041 15.34398270 39230
STARLINK-35469          
1 65863U 25223K   26166.37384214  .00021596  00000+0  64840-3 0  9992
2 65863  53.1573 199.5892 0000933  83.2509 276.8600 15.34403120 39171
STARLINK-35471          
1 65864U 25223L   26166.36904225  .00016058  00000+0  55331-3 0  9994
2 65864  53.1574 200.2632 0001068  74.8354 285.2765 15.30188665 39164
STARLINK-35475          
1 65865U 25223M   26166.49990487  .00021779  00000+0  65425-3 0  9995
2 65865  53.1575 198.9493 0001321  85.2360 274.8794 15.34379761 39191
STARLINK-35312          
1 65866U 25223N   26166.38015313  .00010853  00000+0  33183-3 0  9997
2 65866  53.1577 199.6241 0001123  96.8636 263.2495 15.34405302 39176
STARLINK-35456          
1 65867U 25223P   26166.37748718  .00010631  00000+0  37081-3 0  9994
2 65867  53.1572 200.3133 0001106  61.7986 298.3127 15.30176055 39168
STARLINK-35450          
1 65868U 25223Q   26166.37173758  .00015270  00000+0  46202-3 0  9990
2 65868  53.1570 199.5746 0001020  81.7943 278.3175 15.34407878 39172
STARLINK-35441          
1 65869U 25223R   26166.38857021  .00017617  00000+0  53129-3 0  9997
2 65869  53.1571 199.6778 0001013  97.0812 263.0306 15.34399786 39172
STARLINK-35433          
1 65870U 25223S   26166.37328643  .00037990  00000+0  12886-2 0  9991
2 65870  53.1582 200.2944 0001379  88.7446 271.3713 15.30191442 39174
STARLINK-35465          
1 65871U 25223T   26166.58186710  .00019745  00000+0  67738-3 0  9997
2 65871  53.1558 199.4559 0001036  91.9197 268.1923 15.30181827 39193
STARLINK-34108          
1 65872U 25223U   26166.37219500 -.00012506  00000+0 -41125-3 0  9991
2 65872  53.1587 200.2808 0001121  95.3674 264.7455 15.30166111 39165
STARLINK-35423          
1 65873U 25223V   26166.81296234  .00016562  00000+0  50007-3 0  9993
2 65873  53.1578 197.3457 0001213  86.6230 273.4911 15.34409753 39244
STARLINK-35425          
1 65874U 25223W   26166.78991033  .00025947  00000+0  77648-3 0  9996
2 65874  53.1578 197.9153 0001462  89.2856 270.8314 15.34397011 39233
STARLINK-34688          
1 65875U 25223X   26166.37594654  .00016417  00000+0  49603-3 0  9992
2 65875  53.1575 199.6019 0001161  97.3174 262.7960 15.34394392 39179
STARLINK-34438          
1 65876U 25223Y   26166.81094856  .00017544  00000+0  52923-3 0  9992
2 65876  53.1574 198.0404 0000920  88.1540 271.9568 15.34395990 39235
STARLINK-35462          
1 65877U 25223Z   26166.82097236  .00020002  00000+0  68571-3 0  9998
2 65877  53.1585 198.1006 0001100  80.6157 279.4968 15.30196124 39230
STARLINK-35453          
1 65878U 25223AA  26166.56293344  .00021882  00000+0  65775-3 0  9998
2 65878  53.1576 198.6300 0000714 107.7878 252.3202 15.34357494 39205
STARLINK-35418          
1 65879U 25223AB  26166.38226038  .00013667  00000+0  41506-3 0  9993
2 65879  53.1569 199.6334 0001068  88.8704 271.2421 15.34386546 39175
STARLINK-35445          
1 65880U 25223AC  26166.37804972  .00014782  00000+0  44779-3 0  9997
2 65880  53.1573 199.6070 0001056  89.7496 270.3627 15.34398700 39177
STARLINK-35464          
1 65881U 25223AD  26166.81716680  .00014856  00000+0  45009-3 0  9994
2 65881  53.1583 197.3682 0001504  81.6886 278.4287 15.34390412 39246
