OBJECT_NAME,OBJECT_ID,EPOCH,MEAN_MOTION,ECCENTRICITY,INCLINATION,RA_OF_ASC_NODE,ARG_OF_PERICENTER,MEAN_ANOMALY,EPHEMERIS_TYPE,CLASSIFICATION_TYPE,NORAD_CAT_ID,ELEMENT_SET_NO,REV_AT_EPOCH,BSTAR,MEAN_MOTION_DOT,MEAN_MOTION_DDOT
STARLINK-35231,2025-221AC,2026-06-15T20:08:46.863456,15.30197803,.0000996,53.1616,352.9368,86.3049,273.8065,0,U,65849,999,4110,.60055277E-3,.17468E-3,0
STARLINK-35252,2025-221AD,2026-06-15T19:59:39.773472,15.30202356,.0001282,53.1596,352.8978,89.0517,271.0630,0,U,65850,999,4110,.29234761E-3,.831E-4,0
STARLINK-35208,2025-223A,2026-06-15T19:39:44.231616,15.34414643,.00010555,53.1576,197.3931,76.9462,283.1659,0,U,65854,999,3924,.94242639E-3,.31614E-3,0
STARLINK-35200,2025-223B,2026-06-15T09:23:19.784544,15.30201128,.00011612,53.1555,200.3963,52.4424,307.6682,0,U,65855,999,3916,.35262964E-3,.10099E-3,0
STARLINK-35459,2025-223C,2026-06-15T19:33:42.054048,15.34395257,.00012838,53.1583,197.3669,84.2832,275.8317,0,U,65856,999,3924,.70115952E-3,.23384E-3,0
STARLINK-35489,2025-223D,2026-06-15T07:39:41.102208,15.34397893,.00011045,53.1570,199.9559,84.5830,275.5299,0,U,65857,999,3916,.61132603E-3,.20333E-3,0
STARLINK-35199,2025-223E,2026-06-15T09:02:03.358464,15.30201735,.00012108,53.1574,200.3111,85.4190,274.6949,0,U,65858,999,3916,.47017464E-3,.13592E-3,0
STARLINK-35408,2025-223F,2026-06-15T09:22:34.269024,15.34400638,.00010392,53.1571,199.6922,74.5243,285.5875,0,U,65859,999,3917,.50357625E-3,.16676E-3,0
STARLINK-35303,2025-223G,2026-06-15T09:16:30.609696,15.34403497,.00007611,53.1575,199.6619,75.0702,285.0385,0,U,65860,999,3917,.33320115E-3,.10899E-3,0
STARLINK-35258,2025-223H,2026-06-15T19:42:48.729312,15.34404884,.00012535,53.1581,197.4009,80.3429,279.7716,0,U,65861,999,3924,.67820337E-3,.22611E-3,0
STARLINK-35386,2025-223J,2026-06-15T19:21:42.439680,15.34398270,.00014683,53.1577,198.0223,77.4125,282.7041,0,U,65862,999,3923,.29188171E-3,.9497E-4,0
STARLINK-35469,2025-223K,2026-06-15T08:58:19.960896,15.34403120,.00009338,53.1573,199.5892,83.2509,276.8600,0,U,65863,999,3917,.64840032E-3,.21596E-3,0
STARLINK-35471,2025-223L,2026-06-15T08:51:25.250400,15.30188665,.0001068,53.1574,200.2632,74.8354,285.2765,0,U,65864,999,3916,.55331204E-3,.16058E-3,0
STARLINK-35475,2025-223M,2026-06-15T11:59:51.780768,15.34379761,.00013219,53.1575,198.9493,85.2360,274.8794,0,U,65865,999,3919,.65425012E-3,.21779E-3,0
STARLINK-35312,2025-223N,2026-06-15T09:07:25.230432,15.34405302,.00011238,53.1577,199.6241,96.8636,263.2495,0,U,65866,999,3917,.33183232E-3,.10853E-3,0
STARLINK-35456,2025-223P,2026-06-15T09:03:34.892352,15.30176055,.00011066,53.1572,200.3133,61.7986,298.3127,0,U,65867,999,3916,.37080862E-3,.10631E-3,0
STARLINK-35450,2025-223Q,2026-06-15T08:55:18.126912,15.34407878,.000102,53.1570,199.5746,81.7943,278.3175,0,U,65868,999,3917,.46202367E-3,.1527E-3,0
STARLINK-35441,2025-223R,2026-06-15T09:19:32.466144,15.34399786,.00010134,53.1571,199.6778,97.0812,263.0306,0,U,65869,999,3917,.53129484E-3,.17617E-3,0
STARLINK-35433,2025-223S,2026-06-15T08:57:31.947552,15.30191442,.00013794,53.1582,200.2944,88.7446,271.3713,0,U,65870,999,3917,.12885766E-2,.3799E-3,0
STARLINK-35465,2025-223T,2026-06-15T13:57:53.317440,15.30181827,.00010362,53.1558,199.4559,91.9197,268.1923,0,U,65871,999,3919,.67738362E-3,.19745E-3,0
STARLINK-34108,2025-223U,2026-06-15T08:55:57.648000,15.30166111,.00011211,53.1587,200.2808,95.3674,264.7455,0,U,65872,999,3916,-.41124569E-3,-.12506E-3,0
STARLINK-35423,2025-223V,2026-06-15T19:30:39.946176,15.34409753,.00012138,53.1578,197.3457,86.6230,273.4911,0,U,65873,999,3924,.50007316E-3,.16562E-3,0
STARLINK-35425,2025-223W,2026-06-15T18:57:28.252512,15.34397011,.00014625,53.1578,197.9153,89.2856,270.8314,0,U,65874,999,3923,.77647698E-3,.25947E-3,0
STARLINK-34688,2025-223X,2026-06-15T09:01:21.781056,15.34394392,.00011612,53.1575,199.6019,97.3174,262.7960,0,U,65875,999,3917,.4960301E-3,.16417E-3,0
STARLINK-34438,2025-223Y,2026-06-15T19:27:45.955584,15.34395990,.00009207,53.1574,198.0404,88.1540,271.9568,0,U,65876,999,3923,.52923168E-3,.17544E-3,0
STARLINK-35462,2025-223Z,2026-06-15T19:42:12.011904,15.30196124,.00011004,53.1585,198.1006,80.6157,279.4968,0,U,65877,999,3923,.68570704E-3,.20002E-3,0
STARLINK-35453,2025-223AA,2026-06-15T13:30:37.449216,15.34357494,.00007143,53.1576,198.6300,107.7878,252.3202,0,U,65878,999,3920,.65775093E-3,.21882E-3,0
STARLINK-35418,2025-223AB,2026-06-15T09:10:27.296832,15.34386546,.00010686,53.1569,199.6334,88.8704,271.2421,0,U,65879,999,3917,.41505677E-3,.13667E-3,0
STARLINK-35445,2025-223AC,2026-06-15T09:04:23.495808,15.34398700,.00010561,53.1573,199.6070,89.7496,270.3627,0,U,65880,999,3917,.4477941E-3,.14782E-3,0
STARLINK-35464,2025-223AD,2026-06-15T19:36:43.211520,15.34390412,.00015042,53.1583,197.3682,81.6886,278.4287,0,U,65881,999,3924,.45008651E-3,.14856E-3,0
